satname,norad_id,inclination_deg,eccentricity,mean_motion_rev_per_day,perigee_km,apogee_km,l1,l2
STARLINK-1184,45098,53.053,0.0001863,15.07086558,543.8183548316874,546.3979559765912,1 45098U 20006BG  25362.85051519  .00008939  00000+0  60696-3 0  9994,2 45098  53.0530 204.5729 0001863 128.6876 231.4280 15.07086558326342
STARLINK-1193,45100,53.0504,0.000142,15.06397845,546.2347622776688,548.201563143879,1 45100U 20006BJ  25362.78563012 -.00000692  00000+0 -27584-4 0  9996,2 45100  53.0504 204.9160 0001420  94.2071 265.9081 15.06397845326337
STARLINK-1143,45179,53.0523,0.0002893,15.49374855,416.58740073570516,420.5199659650916,1 45179U 20012B   25362.91668980  .00122274  00000+0  21669-2 0  9999,2 45179  53.0523 312.2572 0002893  88.5046 101.6269 15.49374855  5945
STARLINK-1202,45183,53.0535,0.0001256,15.06404969,546.3265068447217,548.066150576894,1 45183U 20012F   25362.31751668  .00002156  00000+0  16357-3 0  9999,2 45183  53.0535   7.0241 0001256  86.7401 273.3731 15.06404969324085
STARLINK-1216,45185,53.0551,0.0001353,15.06403136,546.2649482071492,548.1389449260887,1 45185U 20012H   25362.70822865  .00000377  00000+0  44207-4 0  9991,2 45185  53.0551   5.2652 0001353  85.7955 274.3189 15.06403136324085
STARLINK-1225,45187,53.0565,0.0001524,15.06404951,546.1409630702083,548.2518046856148,1 45187U 20012K   25362.39491936  .00000936  00000+0  81707-4 0  9996,2 45187  53.0565   6.6750 0001524  94.5636 265.5527 15.06404951324084
STARLINK-1230,45189,53.0552,0.0001465,15.06409236,546.1686916563513,548.1978104899163,1 45189U 20012M   25362.19956016  .00000430  00000+0  47727-4 0  9994,2 45189  53.0552   7.5526 0001465  92.9491 267.1666 15.06409236321280
STARLINK-1234,45190,53.0509,0.0012537,15.46757633,417.6878860163788,434.7491270134142,1 45190U 20012N   25362.91668980  .00089893  00000+0  17500-2 0  9990,2 45190  53.0509 307.1052 0012537  63.6577 287.0700 15.46757633  5942
STARLINK-1269,45197,53.0547,0.0001336,15.06409521,546.257154929398,548.1076002670925,1 45197U 20012V   25362.74140015  .00004609  00000+0  32803-3 0  9998,2 45197  53.0547   5.1184 0001336  84.3535 275.7606 15.06409521324119
STARLINK-1154,45198,53.0552,0.0001483,15.18317764,509.90281062328813,511.94610625186124,1 45198U 20012W   25362.91668980  .01855057  00000+0  81039-1 0  9999,2 45198  53.0552 344.0160 0001483  88.3357 355.9276 15.18317764  5787
STARLINK-1199,45201,53.0548,0.0001449,15.06410708,546.1752614042389,548.1822179055916,1 45201U 20012Z   25362.34515494  .00000620  00000+0  60503-4 0  9995,2 45201  53.0548 346.8963 0001449  96.1575 263.9579 15.06410708324360
STARLINK-1209,45206,53.0516,0.0012779,15.39343913,439.32504905524183,456.7714132690471,1 45206U 20012AE  25362.91668980  .00090779  00000+0  22672-2 0  9999,2 45206  53.0516 310.4422 0012779  62.5909  27.4740 15.39343913  5912
STARLINK-1210,45207,53.0189,0.0004051,15.7371824,345.5561818089245,351.00592571608286,1 45207U 20012AF  25362.91668980  .00145749  00000+0  10020-2 0  9992,2 45207  53.0189 259.7891 0004051 159.5619 332.8581 15.73718240  5916
STARLINK-1231,45212,53.0502,7.23e-05,15.15993445,517.4656050406329,518.4627812731642,1 45212U 20012AL  25362.65617338  .00021866  00000+0  11376-2 0  9998,2 45212  53.0502 340.6506 0000723 142.9446 217.1597 15.15993445324431
STARLINK-1271,45217,53.0537,0.0001237,15.06404899,546.339879490255,548.0532070088548,1 45217U 20012AR  25362.66214816  .00001353  00000+0  10967-3 0  9993,2 45217  53.0537 345.4733 0001237  80.8515 279.2614 15.06404899324414
STARLINK-1191,45222,53.055,0.0001504,15.06406392,546.1503979714626,548.2335369248722,1 45222U 20012AW  25362.60501227  .00001214  00000+0  10038-3 0  9993,2 45222  53.0550 325.7302 0001504  89.4065 270.7096 15.06406392324689
STARLINK-1212,45223,53.054,0.0001632,15.14334475,521.8735114066676,524.1260424506581,1 45223U 20012AX  25362.91668980  .00076402  00000+0  40932-2 0  9994,2 45223  53.0540 324.8771 0001632  99.3448 109.0793 15.14334475  5782
STARLINK-1215,45225,53.057,0.0001503,15.06402576,546.1627841789086,548.2445415821712,1 45225U 20012AZ  25362.18113476  .00002198  00000+0  16641-3 0  9992,2 45225  53.0570 327.6301 0001503  97.1420 262.9740 15.06402576324571
STARLINK-1221,45227,53.0672,0.0005565,15.39065534,445.07210192472485,452.6705621983101,1 45227U 20012BB  25362.67642794  .00018675  00000+0  48421-3 0  9996,2 45227  53.0672 245.3906 0005565 129.3209 230.8288 15.39065534325766
STARLINK-1222,45228,53.057,0.0001962,15.42384552,437.73636924046696,440.41144279998844,1 45228U 20012BC  25362.26243821  .00059307  00000+0  13515-2 0  9992,2 45228  53.0570 323.5709 0001962  91.2781 268.8449 15.42384552324579
STARLINK-1226,45229,53.0556,0.0001399,15.06413227,546.2021687930282,548.1398699768524,1 45229U 20012BD  25362.17744439  .00001779  00000+0  13827-3 0  9991,2 45229  53.0556 327.6487 0001399  93.0367 267.0783 15.06413227324514
STARLINK-1227,45230,53.0576,0.0001879,15.06413115,545.8700972024662,548.4726280851473,1 45230U 20012BE  25362.30645644  .00003993  00000+0  28669-3 0  9996,2 45230  53.0576 327.0687 0001879  86.2391 273.8813 15.06413115324658
STARLINK-1246,45235,53.0549,0.0001379,15.06413388,546.2155260425643,548.1255258582214,1 45235U 20012BK  25362.32119700  .00002812  00000+0  20755-3 0  9999,2 45235  53.0549   7.0048 0001379  95.0031 265.1116 15.06413388324105
STARLINK-1270,45237,53.0539,0.0001805,15.34809754,460.2510840402738,462.72018781184215,1 45237U 20012BM  25362.91668980  .01334763  00000+0  35526-1 0  9999,2 45237  53.0539 322.7876 0001805 103.3568 300.4765 15.34809754  5830
STARLINK-1279,45360,53.0482,0.000323,15.43186987,434.5092711310108,438.9116625946044,1 45360U 20019A   25362.70927942  .00028828  00000+0  64673-3 0  9994,2 45360  53.0482  79.3554 0003230 259.1272 100.9370 15.43186987319668
STARLINK-1301,45361,53.0471,0.00045,15.47613353,420.64922803676745,426.7708903900593,1 45361U 20019B   25362.91668980  .00077683  00000+0  14752-2 0  9997,2 45361  53.0471  86.8970 0004500 277.6704 242.9724 15.47613353  5936
STARLINK-1306,45362,53.0351,0.0004737,15.98764148,274.6936243755599,280.99950320389325,1 45362U 20019C   25362.91668980  .00448006  95913-4  92033-3 0  9990,2 45362  53.0351  59.7817 0004737  28.9733 113.7174 15.98764148  6068
STARLINK-1262,45366,53.057,0.0001302,15.06409825,546.2797694303445,548.0831223536552,1 45366U 20019G   25362.56814870  .00001878  00000+0  14490-3 0  9997,2 45366  53.0570 125.8934 0001302  84.6976 275.4162 15.06409825319015
STARLINK-1273,45367,53.0558,0.0001159,15.06395119,546.4238679089949,548.0291671723598,1 45367U 20019H   25362.59027416  .00000656  00000+0  62946-4 0  9996,2 45367  53.0558 125.7939 0001159  81.7345 278.3776 15.06395119319017
STARLINK-1276,45368,53.0537,0.0001094,15.06389799,546.4851861578918,548.0004592631003,1 45368U 20019J   25362.62713072 -.00001430  00000+0 -77129-4 0  9993,2 45368  53.0537 125.6318 0001094  83.3285 276.7829 15.06389799319023
STARLINK-1277,45369,53.056,0.0001443,15.0639513,546.2271538763653,548.2258137777981,1 45369U 20019K   25362.61984140  .00000107  00000+0  26049-4 0  9992,2 45369  53.0560 126.2890 0001443  86.3384 273.7770 15.06395130319010
STARLINK-1281,45370,53.0553,0.0001369,15.06406412,546.2438286242295,548.1399836787341,1 45370U 20019L   25362.74876398  .00000886  00000+0  78322-4 0  9998,2 45370  53.0553 125.0870 0001369  84.3895 275.7250 15.06406412319045
STARLINK-1300,45374,53.0553,0.0001357,15.06389476,546.3040384940468,548.1835868466042,1 45374U 20019Q   25362.63819977  .00006162  00000+0  43230-3 0  9992,2 45374  53.0553 125.5792 0001357  84.3711 275.7433 15.06389476319022
STARLINK-1302,45375,53.056,0.0001329,15.06396237,546.3027106592181,548.1434713714107,1 45375U 20019R   25362.65293743  .00000599  00000+0  59099-4 0  9991,2 45375  53.0560 125.5155 0001329  95.9235 264.1906 15.06396237319022
STARLINK-1304,45376,53.0532,8.03e-05,15.13468097,525.078836095392,526.1875815909334,1 45376U 20019S   25362.91668980  .02053542  00000+0  10347+0 0  9996,2 45376  53.0532 124.2340 0000803  95.0820 205.0486 15.13468097  5831
STARLINK-1305,45377,53.0485,0.0003851,15.40357818,442.4248395550758,447.68006006932046,1 45377U 20019T   25362.91668980  .00065099  00000+0  15843-2 0  9994,2 45377  53.0485 110.0777 0003851 210.9399 356.5158 15.40357818  5714
STARLINK-1319,45379,53.0515,0.0004365,15.44481411,429.92925098591604,435.8752882682993,1 45379U 20019V   25362.58981546  .00027876  00000+0  59899-3 0  9996,2 45379  53.0515 112.0598 0004365 221.8768 138.1904 15.44481411319212
STARLINK-1266,45383,53.0547,0.0001701,15.06374459,546.1118234255064,548.4678536359743,1 45383U 20019Z   25362.55897544 -.00001994  00000+0 -11508-3 0  9992,2 45383  53.0547 105.9451 0001701  79.2814 280.8366 15.06374459319284
STARLINK-1267,45384,53.0539,7.91e-05,15.37130624,454.0587978175399,455.13973669501956,1 45384U 20019AA  25362.91668980  .00001700  00000+0  56611-4 0  9991,2 45384  53.0539 103.1907 0000791  94.0218 332.6966 15.37130624  5836
STARLINK-1272,45386,53.0495,0.000462,15.43549785,432.4946116373603,438.7905439672495,1 45386U 20019AC  25362.76789029  .00088005  00000+0  19165-2 0  9998,2 45386  53.0495  89.6973 0004620 264.0851  95.9628 15.43549785319535
STARLINK-1274,45387,53.0327,0.0003344,15.36858825,453.11970307897445,457.6899758612126,1 45387U 20019AD  25362.91668980  .00010768  00000+0  30467-3 0  9998,2 45387  53.0327  78.6739 0003344   7.9357 162.6010 15.36858825  5859
STARLINK-1280,45388,53.0482,0.0003966,15.49396911,415.79363967954123,421.1847235668047,1 45388U 20019AE  25362.91668980  .00067643  00000+0  12097-2 0  9991,2 45388  53.0482 106.0252 0003966 215.3269 359.1315 15.49396911  5909
STARLINK-1283,45389,53.0503,0.0003806,15.41458735,439.2076245997614,444.3989631514596,1 45389U 20019AF  25362.60909388  .00098700  00000+0  23011-2 0  9994,2 45389  53.0503  90.4702 0003806 358.0587   2.0402 15.41458735319512
